NORAD_CAT_ID,OBJECT_NAME,OBJECT_TYPE,EPOCH,MEAN_MOTION,ECCENTRICITY,INCLINATION,RA_OF_ASC_NODE,ARG_OF_PERICENTER,MEAN_ANOMALY,BSTAR,MEAN_MOTION_DOT,MEAN_MOTION_DDOT,TLE_LINE0,TLE_LINE1,TLE_LINE2,SEMIMAJOR_AXIS,PERIOD,APOGEE,PERIGEE,DECAYED
56483.0,STARLINK-5868,PAYLOAD,2023-07-12 19:02:30,15.69917893,0.0002999,69.9993,67.9731,257.9817,102.1043,1.2361e-05,1.274e-05,0.0,0 STARLINK-5868,1 56483U 23064AM  23193.79341350  .00001274  00000-0  12361-4 0  9992,2 56483  69.9993  67.9731 0002999 257.9817 102.1043 15.69917893 10273,6737.269,91.725,361.154,357.113,0.0
56483.0,STARLINK-5868,PAYLOAD,2023-07-14 01:37:32,15.69935042,0.0003817,69.9962,64.3865,272.0052,88.0706,1.0094e-05,1.001e-05,0.0,0 STARLINK-5868,1 56483U 23064AM  23195.06773812  .00001001  00000-0  10094-4 0  9995,2 56483  69.9962  64.3865 0003817 272.0052  88.0706 15.69935042 10473,6737.22,91.724,361.656,356.513,0.0
56483.0,STARLINK-5868,PAYLOAD,2023-07-14 16:55:04,15.69929557,0.0003262,69.996,62.5951,261.0875,98.9951,3.0568e-06,1.55e-06,0.0,0 STARLINK-5868,1 56483U 23064AM  23195.70491195  .00000155  00000-0  30568-5 0  9995,2 56483  69.9960  62.5951 0003262 261.0875  98.9951 15.69929557 10579,6737.236,91.724,361.298,356.903,0.0
56483.0,STARLINK-5868,PAYLOAD,2023-07-15 17:23:06,15.69923364,0.0003492,69.9971,59.73,271.6765,88.4031,2.5731e-06,9.6e-07,0.0,0 STARLINK-5868,1 56483U 23064AM  23196.72438542  .00000096  00000-0  25731-5 0  9995,2 56483  69.9971  59.7300 0003492 271.6765  88.4031 15.69923364 10738,6737.253,91.724,361.471,356.766,0.0
56483.0,STARLINK-5868,PAYLOAD,2023-07-16 20:54:38,15.69935277,0.0003315,69.9969,56.5052,262.9668,97.1151,1.2664e-05,1.311e-05,0.0,0 STARLINK-5868,1 56483U 23064AM  23197.87127607  .00001311  00000-0  12664-4 0  9990,2 56483  69.9969  56.5052 0003315 262.9668  97.1151 15.69935277 10919,6737.219,91.724,361.318,356.851,0.0
56483.0,STARLINK-5868,PAYLOAD,2023-07-17 18:19:10,15.69929794,0.0003057,69.9994,53.998,264.4818,95.6029,2.3043e-05,2.559e-05,0.0,0 STARLINK-5868,1 56483U 23064AM  23198.76331378  .00002559  00000-0  23043-4 0  9999,2 56483  69.9994  53.9980 0003057 264.4818  95.6029 15.69929794 11055,6737.235,91.724,361.159,357.04,0.0
56483.0,STARLINK-5868,PAYLOAD,2023-07-19 00:54:13,15.69918739,0.0004241,69.9988,50.4143,286.9065,73.1665,-1.0294e-05,-1.451e-05,0.0,0 STARLINK-5868,1 56483U 23064AM  23200.03765263 -.00001451  00000-0 -10294-4 0  9993,2 56483  69.9988  50.4143 0004241 286.9065  73.1665 15.69918739 11256,6737.266,91.724,361.989,356.274,0.0
56483.0,STARLINK-5868,PAYLOAD,2023-07-19 17:43:29,15.69926694,0.0005291,69.998,48.4444,295.9452,64.1198,2.5402e-07,-1.83e-06,0.0,0 STARLINK-5868,1 56483U 23064AM  23200.73853791 -.00000183  00000-0  25402-6 0  9993,2 56483  69.9980  48.4444 0005291 295.9452  64.1198 15.69926694 11367,6737.244,91.724,362.673,355.544,0.0
56483.0,STARLINK-5868,PAYLOAD,2023-07-21 00:18:32,15.69922198,0.0003493,69.9973,44.8595,273.8204,86.2592,2.2324e-05,2.472e-05,0.0,0 STARLINK-5868,1 56483U 23064AM  23202.01287100  .00002472  00000-0  22324-4 0  9991,2 56483  69.9973  44.8595 0003493 273.8204  86.2592 15.69922198 11568,6737.257,91.724,361.475,356.768,0.0
56483.0,STARLINK-5868,PAYLOAD,2023-07-24 13:56:38,15.69930101,0.0003271,69.9994,34.829,259.3069,100.7758,6.6287e-06,5.85e-06,0.0,0 STARLINK-5868,1 56483U 23064AM  23205.58100548  .00000585  00000-0  66287-5 0  9996,2 56483  69.9994  34.8290 0003271 259.3069 100.7758 15.69930101 11776,6737.234,91.724,361.303,356.895,0.0
56483.0,STARLINK-5868,PAYLOAD,2023-07-25 00:38:54,15.69931282,0.0003955,69.997,33.5735,267.8967,92.1776,-2.1946e-07,-2.4e-06,0.0,0 STARLINK-5868,1 56483U 23064AM  23206.02702191 -.00000240  00000-0 -21946-6 0  9992,2 56483  69.9970  33.5735 0003955 267.8967  92.1776 15.69931282 11843,6737.231,91.724,361.76,356.431,0.0
56483.0,STARLINK-5868,PAYLOAD,2023-07-26 11:49:12,15.699265,0.0004098,69.9972,29.4536,266.8427,93.23,1.0831e-05,1.09e-05,0.0,0 STARLINK-5868,1 56483U 23064AM  23207.49250820  .00001090  00000-0  10831-4 0  9992,2 56483  69.9972  29.4536 0004098 266.8427  93.2300 15.69926500 12075,6737.244,91.724,361.87,356.348,0.0
56483.0,STARLINK-5868,PAYLOAD,2023-07-27 10:45:30,15.69919562,0.0004465,69.9984,26.7673,276.7062,83.3626,8.3217e-06,7.87e-06,0.0,0 STARLINK-5868,1 56483U 23064AM  23208.44826554  .00000787  00000-0  83217-5 0  9992,2 56483  69.9984  26.7673 0004465 276.7062  83.3626 15.69919562 12579,6737.264,91.724,362.137,356.121,0.0
56483.0,STARLINK-5868,PAYLOAD,2023-07-27 12:17:15,15.69919517,0.0004364,69.9987,26.5891,274.8193,85.2504,7.3227e-06,6.67e-06,0.0,0 STARLINK-5868,1 56483U 23064AM  23208.51198128  .00000667  00000-0  73227-5 0  9996,2 56483  69.9987  26.5891 0004364 274.8193  85.2504 15.69919517 12233,6737.264,91.724,362.069,356.189,0.0
56483.0,STARLINK-5868,PAYLOAD,2023-07-27 18:24:15,15.69924123,0.000398,69.9995,25.8734,269.4036,90.6703,1.0781e-05,1.084e-05,0.0,0 STARLINK-5868,1 56483U 23064AM  23208.76684474  .00001084  00000-0  10781-4 0  9996,2 56483  69.9995  25.8734 0003980 269.4036  90.6703 15.69924123 12622,6737.251,91.724,361.798,356.435,0.0
56483.0,STARLINK-5868,PAYLOAD,2023-07-27 21:27:45,15.69927202,0.0003491,69.9996,25.514,264.7011,95.3786,1.4464e-05,1.527e-05,0.0,0 STARLINK-5868,1 56483U 23064AM  23208.89427697  .00001527  00000-0  14464-4 0  9996,2 56483  69.9996  25.5140 0003491 264.7011  95.3786 15.69927202 12296,6737.242,91.724,361.459,356.755,0.0
56483.0,STARLINK-5868,PAYLOAD,2023-07-28 11:13:31,15.69926415,0.0003939,69.9973,23.899,267.8461,92.2284,-1.2039e-06,-3.58e-06,0.0,0 STARLINK-5868,1 56483U 23064AM  23209.46772873 -.00000358  00000-0 -12039-5 0  9999,2 56483  69.9973  23.8990 0003939 267.8461  92.2284 15.69926415 12389,6737.245,91.724,361.763,356.456,0.0
56483.0,STARLINK-5868,PAYLOAD,2023-07-28 21:55:47,15.69928617,0.0004012,69.9974,22.646,270.7787,89.2949,2.5415e-06,9.2e-07,0.0,0 STARLINK-5868,1 56483U 23064AM  23209.91374322  .00000092  00000-0  25415-5 0  9991,2 56483  69.9974  22.6460 0004012 270.7787  89.2949 15.69928617 12803,6737.238,91.724,361.806,356.4,0.0
56483.0,STARLINK-5868,PAYLOAD,2023-07-29 10:09:48,15.69924948,0.0004011,69.9973,21.2131,274.2015,85.8722,9.7859e-06,9.64e-06,0.0,0 STARLINK-5868,1 56483U 23064AM  23210.42348099  .00000964  00000-0  97859-5 0  9990,2 56483  69.9973  21.2131 0004011 274.2015  85.8722 15.69924948 12886,6737.249,91.724,361.816,356.411,0.0
56483.0,STARLINK-5868,PAYLOAD,2023-07-30 10:37:50,15.69923837,0.0003856,69.9972,18.3469,274.5925,85.483,3.3241e-06,1.87e-06,0.0,0 STARLINK-5868,1 56483U 23064AM  23211.44295074  .00000187  00000-0  33241-5 0  9999,2 56483  69.9972  18.3469 0003856 274.5925  85.4830 15.69923837 13046,6737.252,91.724,361.715,356.519,0.0
56483.0,STARLINK-5868,PAYLOAD,2023-07-31 11:05:53,15.69915784,0.0003621,69.9985,15.4805,266.3143,93.7639,3.0242e-06,1.51e-06,0.0,0 STARLINK-5868,1 56483U 23064AM  23212.46242146  .00000151  00000-0  30242-5 0  9993,2 56483  69.9985  15.4805 0003621 266.3143  93.7639 15.69915784 13202,6737.275,91.725,361.58,356.7,0.0
56483.0,STARLINK-5868,PAYLOAD,2023-07-31 18:44:38,15.69927752,0.0003515,69.9985,14.5836,263.8703,96.2092,6.8336e-06,6.09e-06,0.0,0 STARLINK-5868,1 56483U 23064AM  23212.78099784  .00000609  00000-0  68336-5 0  9999,2 56483  69.9985  14.5836 0003515 263.8703  96.2092 15.69927752 13256,6737.241,91.724,361.474,356.738,0.0
56483.0,STARLINK-5868,PAYLOAD,2023-08-01 13:05:40,15.69923871,0.0003433,69.9984,12.4346,269.9568,90.1234,4.7122e-06,3.54e-06,0.0,0 STARLINK-5868,1 56483U 23064AM  23213.54560329  .00000354  00000-0  47122-5 0  9999,2 56483  69.9984  12.4346 0003433 269.9568  90.1234 15.69923871 13375,6737.252,91.724,361.43,356.804,0.0
56483.0,STARLINK-5868,PAYLOAD,2023-08-02 18:08:56,15.69930463,0.00035,69.998,9.0301,268.2841,91.7954,1.2182e-05,1.253e-05,0.0,0 STARLINK-5868,1 56483U 23064AM  23214.75621416  .00001253  00000-0  12182-4 0  9994,2 56483  69.9980   9.0301 0003500 268.2841  91.7954 15.69930463 13567,6737.233,91.724,361.456,356.74,0.0
56483.0,STARLINK-5868,PAYLOAD,2023-08-03 10:58:14,15.69906072,0.0003592,69.9998,7.0591,268.9506,91.1278,2.032e-05,2.229e-05,0.0,0 STARLINK-5868,1 56483U 23064AM  23215.45711399  .00002229  00000-0  20320-4 0  9999,2 56483  69.9998   7.0591 0003592 268.9506  91.1278 15.69906072 13675,6737.303,91.725,361.588,356.748,0.0
56483.0,STARLINK-5868,PAYLOAD,2023-08-03 18:36:59,15.69924788,0.0003558,69.9978,6.1636,267.2845,92.7943,7.8017e-06,7.25e-06,0.0,0 STARLINK-5868,1 56483U 23064AM  23215.77568934  .00000725  00000-0  78017-5 0  9995,2 56483  69.9978   6.1636 0003558 267.2845  92.7943 15.69924788 13729,6737.249,91.724,361.511,356.717,0.0
56483.0,STARLINK-5868,PAYLOAD,2023-08-04 05:19:14,15.69928451,0.0003927,69.9984,4.9121,266.2275,93.8472,2.7046e-05,3.041e-05,0.0,0 STARLINK-5868,1 56483U 23064AM  23216.22169949  .00003041  00000-0  27046-4 0  9998,2 56483  69.9984   4.9121 0003927 266.2275  93.8472 15.69928451 13794,6737.239,91.724,361.749,356.458,0.0
56483.0,STARLINK-5868,PAYLOAD,2023-08-05 10:22:32,15.69920386,0.0003263,69.9986,1.5063,265.5919,94.4904,2.8798e-05,3.251e-05,0.0,0 STARLINK-5868,1 56483U 23064AM  23217.43232215  .00003251  00000-0  28798-4 0  9997,2 56483  69.9986   1.5063 0003263 265.5919  94.4904 15.69920386 13981,6737.262,91.724,361.325,356.928,0.0
56483.0,STARLINK-5868,PAYLOAD,2023-08-05 18:01:17,15.69936185,0.0003556,69.9979,0.6098,269.1757,90.9032,4.6186e-05,5.347e-05,0.0,0 STARLINK-5868,1 56483U 23064AM  23217.75089421  .00005347  00000-0  46186-4 0  9990,2 56483  69.9979   0.6098 0003556 269.1757  90.9032 15.69936185 14030,6737.217,91.723,361.477,356.686,0.0
56483.0,STARLINK-5868,PAYLOAD,2023-08-05 19:33:04,15.69902895,0.0003399,70.0004,0.4307,277.7363,82.3447,-2.0758e-05,-2.706e-05,0.0,0 STARLINK-5868,1 56483U 23064AM  23217.81463275 -.00002706  00000-0 -20758-4 0  9995,2 56483  70.0004   0.4307 0003399 277.7363  82.3447 15.69902895 14043,6737.312,91.725,361.467,356.887,0.0
